FENGYUN 1C DEB          
1 31206U 99025BKL 17345.58968453  .00000284  00000-0  11789-3 0  9998
2 31206  98.8829 114.3773 0086027 288.4126  70.7718 14.32339029559395
